satname,norad_id,inclination_deg,eccentricity,mean_motion_rev_per_day,perigee_km,apogee_km,l1,l2
STARLINK-1423,45710,53.0563,0.0001471,15.06400513,546.1912671260188,548.2287042092021,1 45710U 20035BF  25290.78911693  .00001913  00000+0  14728-3 0  9997,2 45710  53.0563 318.1315 0001471  95.1888 264.9269 15.06400513297613
STARLINK-1433,45711,53.0546,0.0002,15.06406431,545.8067821500481,548.5769136892159,1 45711U 20035BG  25290.77067277  .00001565  00000+0  12394-3 0  9997,2 45711  53.0546 318.2070 0002000  87.2648 272.8570 15.06406431297606
STARLINK-1434,45712,53.0514,0.0003247,15.14028514,521.6883843667629,526.1705863423513,1 45712U 20035BH  25290.81014049  .00053569  00000+0  29087-2 0  9999,2 45712  53.0514 314.9973 0003247   7.6352 352.4689 15.14028514297662
STARLINK-1465,45731,53.052,0.0001517,15.06411746,546.1249884588251,548.2261282890358,1 45731U 20038B   25290.87019944  .00005715  00000+0  40209-3 0  9998,2 45731  53.0520 157.7627 0001517  77.0763 283.0395 15.06411746294668
STARLINK-1471,45735,53.0501,0.0002907,15.40131597,443.73688388147366,447.70427467806803,1 45735U 20038F   25290.86495608  .00032330  00000+0  80112-3 0  9996,2 45735  53.0501 101.3529 0002907 130.2946 229.8312 15.40131597295463
STARLINK-1474,45738,53.0378,0.0003226,15.64348413,372.9347659959885,377.2919631312052,1 45738U 20038J   25290.35513331  .00088018  00000+0  89853-3 0  9992,2 45738  53.0378  63.6792 0003226 235.2165 124.8546 15.64348413295943
STARLINK-1475,45739,53.0521,0.0004112,15.70638622,354.30118167182354,359.8402164835452,1 45739U 20038K   25290.83335647  .00222480  00000+0  17240-2 0  9991,2 45739  53.0521  28.6302 0004112 294.9149 206.1010 15.70638622  5930
STARLINK-1480,45741,53.0515,0.0001678,15.06414659,546.0045646296767,548.3286965281004,1 45741U 20038M   25290.85176856  .00004333  00000+0  30948-3 0  9997,2 45741  53.0515 157.8445 0001678  84.9225 275.1955 15.06414659294671
STARLINK-1500,45744,53.0381,0.0004707,15.26780388,482.2137791415407,488.6751547345166,1 45744U 20038Q   25290.82068551  .00023921  00000+0  90663-3 0  9993,2 45744  53.0381 138.7901 0004707 141.5472 218.5862 15.26780388294934
STARLINK-1504,45746,53.0283,0.0005642,15.38437762,446.8755706364218,454.58126237240504,1 45746U 20038S   25290.87290388  .00163783  00000+0  41737-2 0  9993,2 45746  53.0283 104.3614 0005642 142.8337 217.3057 15.38437762295415
STARLINK-1506,45747,53.0507,0.0003933,15.20838291,500.6042607035233,506.0172074911643,1 45747U 20038T   25290.85399032  .00018458  00000+0  83821-3 0  9997,2 45747  53.0507 140.5341 0003933 163.8337 196.2785 15.20838291294918
STARLINK-1464,45751,53.0527,0.0001414,15.06421548,546.166282261047,548.124752156913,1 45751U 20038X   25290.85361622  .00007973  00000+0  55322-3 0  9991,2 45751  53.0527 137.8348 0001414  85.3817 274.7334 15.06421548294957
STARLINK-1477,45754,53.0516,0.0001262,15.06390502,546.3666854315543,548.1146507549802,1 45754U 20038AA  25290.86835142 -.00002705  00000+0 -16283-3 0  9991,2 45754  53.0516 137.7665 0001262  87.7024 272.4109 15.06390502294956
STARLINK-1478,45755,53.0517,0.0001286,15.06402844,546.3122427979852,548.0934402052208,1 45755U 20038AB  25290.82043922  .00000796  00000+0  72327-4 0  9993,2 45755  53.0517 137.9826 0001286  82.8099 277.3036 15.06402844294937
STARLINK-1484,45756,53.0175,0.0001821,15.57580847,393.4274601274774,395.8941130813582,1 45756U 20038AC  25290.73700818  .00072055  00000+0  95720-3 0  9996,2 45756  53.0175  49.2209 0001821 200.1028 159.9911 15.57580847296171
STARLINK-1493,45759,53.0513,0.0001392,15.06404206,546.2346604591739,548.1626739089179,1 45759U 20038AF  25290.80938819  .00003014  00000+0  22109-3 0  9991,2 45759  53.0513 138.0330 0001392  94.3760 265.7388 15.06404206294935
STARLINK-1494,45760,53.0541,5.24e-05,15.50125981,416.0018804067913,416.7139434735618,1 45760U 20038AG  25290.80880926  .00043462  00000+0  76285-3 0  9993,2 45760  53.0541 127.4397 0000524  78.8731 281.2336 15.50125981295097
STARLINK-1502,45764,53.0527,0.0001279,15.06404161,546.3130546524544,548.0845555513997,1 45764U 20038AL  25290.84256376  .00005113  00000+0  36187-3 0  9995,2 45764  53.0527 137.8834 0001279  82.6037 277.5097 15.06404161294953
STARLINK-1470,45772,53.0501,0.0004795,15.16605668,512.8024000890737,519.4139812269141,1 45772U 20038AU  25290.86207471  .00059278  00000+0  29880-2 0  9990,2 45772  53.0501 111.3013 0004795 155.0538 205.0688 15.16605668295327
STARLINK-1482,45773,53.0532,0.000148,15.06400372,546.1854663942531,548.2353692299266,1 45773U 20038AV  25290.87388597  .00001985  00000+0  15212-3 0  9998,2 45773  53.0532 117.7434 0001480  95.3384 264.7774 15.06400372295234
STARLINK-1485,45774,53.0412,0.0005071,15.95502608,283.5344407846287,290.2941358012158,1 45774U 20038AW  25290.83335647  .00545933  13368-3  13418-2 0  9999,2 45774  53.0412  54.8938 0005071 324.2756 166.9955 15.95502608  6034
STARLINK-1496,45780,53.053,0.0001282,15.06398793,546.3274270625316,548.1030873812833,1 45780U 20038BC  25290.84071483  .00001062  00000+0  90203-4 0  9996,2 45780  53.0530 117.8918 0001282  89.6150 270.4986 15.06398793295215
STARLINK-1497,45781,53.0411,0.000759,15.49661138,412.5585283716382,422.87463410795954,1 45781U 20038BD  25290.83335647  .00258526  00000+0  44454-2 0  9995,2 45781  53.0411  67.7282 0007590 187.0322  99.8968 15.49661138  5926
STARLINK-1510,45784,53.0336,0.0003356,15.64552019,372.261259474556,376.79364785585676,1 45784U 20038BG  25290.83335647  .00194347  00000+0  19360-2 0  9996,2 45784  53.0336  45.4446 0003356 121.5208  15.8419 15.64552019  5813
STARLINK-1513,45786,53.0536,0.0001504,15.06405232,546.1539526468268,548.2370926696431,1 45786U 20038BJ  25290.80384497  .00002709  00000+0  20067-3 0  9999,2 45786  53.0536 118.0590 0001504  91.2977 268.8185 15.06405232295229
STARLINK-1522,46027,53.0568,0.0001442,15.06402343,546.2057427634772,548.2030112166012,1 46027U 20055A   25290.51910544  .00001265  00000+0  10379-3 0  9994,2 46027  53.0568  49.3348 0001442  93.8040 266.3114 15.06402343287305
STARLINK-1523,46028,53.0565,0.0001334,15.06392352,546.3111534313957,548.1588426804756,1 46028U 20055B   25290.60021082  .00000106  00000+0  26014-4 0  9992,2 46028  53.0565  48.9720 0001334  83.5434 276.5706 15.06392352287336
STARLINK-1526,46029,53.0535,7.37e-05,15.06402558,546.6933204368715,547.7141156587104,1 46029U 20055C   25290.59281730  .00002151  00000+0  16322-3 0  9991,2 46029  53.0535  48.9993 0000737 104.8344 255.2726 15.06402558287324
